start=new Date('2022-11-03T00:00:00.000Z').valueOf();
sats=[{"PERIOD":"95.438","MEAN_MOTION":"15.08832657","DECAY_DATE":null,"BSTAR":"0.00012695000000","ECCENTRICITY":"0.00018450","TLE_LINE1":"1 52137U 22029BB  22306.86132593  .00001732  00000-0  12695-3 0  9992","SITE":"AFETR","GP_ID":"216761359","FILE":"3642731","ELEMENT_SET_NO":"999","REV_AT_EPOCH":"3633","MEAN_MOTION_DOT":"0.00001732","RA_OF_ASC_NODE":"158.6117","EPHEMERIS_TYPE":"0","MEAN_ELEMENT_THEORY":"SGP4","PERIAPSIS":"538.491","RCS_SIZE":"LARGE","OBJECT_NAME":"STARLINK-3733","NORAD_CAT_ID":"52137","CLASSIFICATION_TYPE":"U","INCLINATION":"53.2184","MEAN_MOTION_DDOT":"0.0000000000000","REF_FRAME":"TEME","CENTER_NAME":"EARTH","APOAPSIS":"541.044","COUNTRY_CODE":"US","LAUNCH_DATE":"2022-03-19","TIME_SYSTEM":"UTC","ARG_OF_PERICENTER":"43.5228","TLE_LINE2":"2 52137  53.2184 158.6117 0001845  43.5228 316.5910 15.08832657 36339","EPOCH":"2022-11-02T20:40:18.560352","MEAN_ANOMALY":"316.5910","OBJECT_ID":"2022-029BB","OBJECT_TYPE":"PAYLOAD","SEMIMAJOR_AXIS":"6917.903"},{"TLE_LINE1":"1 52138U 22029BC  22306.33874660  .00000715  00000-0  63032-4 0  9995","ECCENTRICITY":"0.00016620","BSTAR":"0.00006303200000","SITE":"AFETR","GP_ID":"216754955","MEAN_MOTION":"15.08833327","PERIOD":"95.438","DECAY_DATE":null,"ELEMENT_SET_NO":"999","REV_AT_EPOCH":"3625","RA_OF_ASC_NODE":"160.9580","MEAN_MOTION_DOT":"0.00000715","FILE":"3642416","MEAN_MOTION_DDOT":"0.0000000000000","INCLINATION":"53.2178","CLASSIFICATION_TYPE":"U","CENTER_NAME":"EARTH","REF_FRAME":"TEME","MEAN_ELEMENT_THEORY":"SGP4","EPHEMERIS_TYPE":"0","RCS_SIZE":"LARGE","PERIAPSIS":"538.616","OBJECT_NAME":"STARLINK-3723","NORAD_CAT_ID":"52138","EPOCH":"2022-11-02T08:07:47.706240","OBJECT_ID":"2022-029BC","MEAN_ANOMALY":"302.0215","OBJECT_TYPE":"PAYLOAD","SEMIMAJOR_AXIS":"6917.901","COUNTRY_CODE":"US","APOAPSIS":"540.916","LAUNCH_DATE":"2022-03-19","TIME_SYSTEM":"UTC","ARG_OF_PERICENTER":"58.0938","TLE_LINE2":"2 52138  53.2178 160.9580 0001662  58.0938 302.0215 15.08833327 36253"},{"PERIAPSIS":"538.441","RCS_SIZE":"LARGE","MEAN_ELEMENT_THEORY":"SGP4","EPHEMERIS_TYPE":"0","NORAD_CAT_ID":"52139","OBJECT_NAME":"STARLINK-3730","MEAN_MOTION_DDOT":"0.0000000000000","INCLINATION":"53.2172","CLASSIFICATION_TYPE":"U","CENTER_NAME":"EARTH","REF_FRAME":"TEME","COUNTRY_CODE":"US","APOAPSIS":"541.092","TLE_LINE2":"2 52139  53.2172 171.0414 0001916  44.1693 315.9451 15.08833162 36109","ARG_OF_PERICENTER":"44.1693","LAUNCH_DATE":"2022-03-19","TIME_SYSTEM":"UTC","OBJECT_ID":"2022-029BD","MEAN_ANOMALY":"315.9451","EPOCH":"2022-11-02T07:39:58.717440","SEMIMAJOR_AXIS":"6917.901","OBJECT_TYPE":"PAYLOAD","MEAN_MOTION":"15.08833162","PERIOD":"95.438","DECAY_DATE":null,"SITE":"AFETR","TLE_LINE1":"1 52139U 22029BD  22306.31942960  .00000049  00000-0  21157-4 0  9995","BSTAR":"0.00002115700000","ECCENTRICITY":"0.00019160","GP_ID":"216754211","FILE":"3642416","REV_AT_EPOCH":"3610","ELEMENT_SET_NO":"999","RA_OF_ASC_NODE":"171.0414","MEAN_MOTION_DOT":"0.00000049"},{"DECAY_DATE":null,"MEAN_MOTION":"15.08823684","PERIOD":"95.439","GP_ID":"216761365","TLE_LINE1":"1 52140U 22029BE  22306.85764965  .00000868  00000-0  72679-4 0  9997","BSTAR":"0.00007267900000","ECCENTRICITY":"0.00018030","SITE":"AFETR","FILE":"3642731","MEAN_MOTION_DOT":"0.00000868","RA_OF_ASC_NODE":"158.6281","ELEMENT_SET_NO":"999","REV_AT_EPOCH":"3633","OBJECT_NAME":"STARLINK-3682","NORAD_CAT_ID":"52140","MEAN_ELEMENT_THEORY":"SGP4","EPHEMERIS_TYPE":"0","RCS_SIZE":"LARGE","PERIAPSIS":"538.548","CENTER_NAME":"EARTH","REF_FRAME":"TEME","MEAN_MOTION_DDOT":"0.0000000000000","INCLINATION":"53.2161","CLASSIFICATION_TYPE":"U","TIME_SYSTEM":"UTC","LAUNCH_DATE":"2022-03-19","ARG_OF_PERICENTER":"61.6160","TLE_LINE2":"2 52140  53.2161 158.6281 0001803  61.6160 298.5014 15.08823684 36334","COUNTRY_CODE":"US","APOAPSIS":"541.043","OBJECT_TYPE":"PAYLOAD","SEMIMAJOR_AXIS":"6917.930","EPOCH":"2022-11-02T20:35:00.929760","OBJECT_ID":"2022-029BE","MEAN_ANOMALY":"298.5014"},{"REF_FRAME":"TEME","CENTER_NAME":"EARTH","CLASSIFICATION_TYPE":"U","MEAN_MOTION_DDOT":"0.0000000000000","INCLINATION":"53.2183","OBJECT_NAME":"STARLINK-3810","NORAD_CAT_ID":"52261","EPHEMERIS_TYPE":"0","MEAN_ELEMENT_THEORY":"SGP4","PERIAPSIS":"538.331","RCS_SIZE":"LARGE","OBJECT_TYPE":"PAYLOAD","SEMIMAJOR_AXIS":"6917.968","EPOCH":"2022-11-01T23:49:42.367008","MEAN_ANOMALY":"324.4126","OBJECT_ID":"2022-041A","TIME_SYSTEM":"UTC","LAUNCH_DATE":"2022-04-21","TLE_LINE2":"2 52261  53.2183 202.5089 0002170  35.7011 324.4126 15.08811483 29623","ARG_OF_PERICENTER":"35.7011","APOAPSIS":"541.334","COUNTRY_CODE":"US","GP_ID":"216755466","BSTAR":"-0.00015144000000","ECCENTRICITY":"0.00021700","TLE_LINE1":"1 52261U 22041A   22305.99285147 -.00002696  00000-0 -15144-3 0  9995","SITE":"AFETR","DECAY_DATE":null,"PERIOD":"95.439","MEAN_MOTION":"15.08811483","RA_OF_ASC_NODE":"202.5089","MEAN_MOTION_DOT":"-0.00002696","ELEMENT_SET_NO":"999","REV_AT_EPOCH":"2962","FILE":"3642416"},{"TLE_LINE1":"1 52262U 22041B   22305.99745973  .00001621  00000-0  11998-3 0  9992","BSTAR":"0.00011998000000","ECCENTRICITY":"0.00018590","SITE":"AFETR","GP_ID":"216753721","MEAN_MOTION":"15.08832106","PERIOD":"95.438","DECAY_DATE":null,"ELEMENT_SET_NO":"999","REV_AT_EPOCH":"2962","MEAN_MOTION_DOT":"0.00001621","RA_OF_ASC_NODE":"202.4793","FILE":"3642416","MEAN_MOTION_DDOT":"0.0000000000000","INCLINATION":"53.2164","CLASSIFICATION_TYPE":"U","CENTER_NAME":"EARTH","REF_FRAME":"TEME","MEAN_ELEMENT_THEORY":"SGP4","EPHEMERIS_TYPE":"0","PERIAPSIS":"538.483","RCS_SIZE":"MEDIUM","OBJECT_NAME":"STARLINK-3761","NORAD_CAT_ID":"52262","EPOCH":"2022-11-01T23:56:20.520672","OBJECT_ID":"2022-041B","MEAN_ANOMALY":"322.0954","OBJECT_TYPE":"PAYLOAD","SEMIMAJOR_AXIS":"6917.905","COUNTRY_CODE":"US","APOAPSIS":"541.056","TIME_SYSTEM":"UTC","LAUNCH_DATE":"2022-04-21","TLE_LINE2":"2 52262  53.2164 202.4793 0001859  38.0169 322.0954 15.08832106 29625","ARG_OF_PERICENTER":"38.0169"},{"TLE_LINE1":"1 52263U 22041C   22306.12899387  .00001424  00000-0  10757-3 0  9991","BSTAR":"0.00010757000000","ECCENTRICITY":"0.00020060","SITE":"AFETR","GP_ID":"216753971","MEAN_MOTION":"15.08836408","PERIOD":"95.438","DECAY_DATE":null,"ELEMENT_SET_NO":"999","REV_AT_EPOCH":"2964","RA_OF_ASC_NODE":"201.8969","MEAN_MOTION_DOT":"0.00001424","FILE":"3642416","INCLINATION":"53.2174","MEAN_MOTION_DDOT":"0.0000000000000","CLASSIFICATION_TYPE":"U","CENTER_NAME":"EARTH","REF_FRAME":"TEME","MEAN_ELEMENT_THEORY":"SGP4","EPHEMERIS_TYPE":"0","PERIAPSIS":"538.369","RCS_SIZE":"LARGE","OBJECT_NAME":"STARLINK-3786","NORAD_CAT_ID":"52263","EPOCH":"2022-11-02T03:05:45.070368","OBJECT_ID":"2022-041C","MEAN_ANOMALY":"321.1179","OBJECT_TYPE":"PAYLOAD","SEMIMAJOR_AXIS":"6917.891","COUNTRY_CODE":"US","APOAPSIS":"541.144","TIME_SYSTEM":"UTC","LAUNCH_DATE":"2022-04-21","TLE_LINE2":"2 52263  53.2174 201.8969 0002006  38.9958 321.1179 15.08836408 29645","ARG_OF_PERICENTER":"38.9958"},{"APOAPSIS":"540.990","COUNTRY_CODE":"US","LAUNCH_DATE":"2022-04-21","TIME_SYSTEM":"UTC","TLE_LINE2":"2 52264  53.2182 201.9318 0001766  46.5900 313.5239 15.08832647 29641","ARG_OF_PERICENTER":"46.5900","EPOCH":"2022-11-02T02:55:08.604768","MEAN_ANOMALY":"313.5239","OBJECT_ID":"2022-041D","OBJECT_TYPE":"PAYLOAD","SEMIMAJOR_AXIS":"6917.903","EPHEMERIS_TYPE":"0","MEAN_ELEMENT_THEORY":"SGP4","RCS_SIZE":"LARGE","PERIAPSIS":"538.546","OBJECT_NAME":"STARLINK-3795","NORAD_CAT_ID":"52264","CLASSIFICATION_TYPE":"U","INCLINATION":"53.2182","MEAN_MOTION_DDOT":"0.0000000000000","REF_FRAME":"TEME","CENTER_NAME":"EARTH","FILE":"3642416","ELEMENT_SET_NO":"999","REV_AT_EPOCH":"2964","RA_OF_ASC_NODE":"201.9318","MEAN_MOTION_DOT":"-0.00000340","PERIOD":"95.438","MEAN_MOTION":"15.08832647","DECAY_DATE":null,"ECCENTRICITY":"0.00017660","BSTAR":"-0.00000325290000","TLE_LINE1":"1 52264U 22041D   22306.12162737 -.00000340  00000-0 -32529-5 0  9995","SITE":"AFETR","GP_ID":"216754723"},{"FILE":"3642416","REV_AT_EPOCH":"2969","ELEMENT_SET_NO":"999","MEAN_MOTION_DOT":"0.00000908","RA_OF_ASC_NODE":"200.4582","MEAN_MOTION":"15.08842032","PERIOD":"95.437","DECAY_DATE":null,"SITE":"AFETR","TLE_LINE1":"1 52265U 22041E   22306.44914459  .00000908  00000-0  75156-4 0  9997","ECCENTRICITY":"0.00018740","BSTAR":"0.00007515600000","GP_ID":"216754966","COUNTRY_CODE":"US","APOAPSIS":"541.036","TLE_LINE2":"2 52265  53.2174 200.4582 0001874  46.1290 313.9857 15.08842032 29692","ARG_OF_PERICENTER":"46.1290","TIME_SYSTEM":"UTC","LAUNCH_DATE":"2022-04-21","OBJECT_ID":"2022-041E","MEAN_ANOMALY":"313.9857","EPOCH":"2022-11-02T10:46:46.092576","SEMIMAJOR_AXIS":"6917.874","OBJECT_TYPE":"PAYLOAD","PERIAPSIS":"538.443","RCS_SIZE":"LARGE","MEAN_ELEMENT_THEORY":"SGP4","EPHEMERIS_TYPE":"0","NORAD_CAT_ID":"52265","OBJECT_NAME":"STARLINK-3740","INCLINATION":"53.2174","MEAN_MOTION_DDOT":"0.0000000000000","CLASSIFICATION_TYPE":"U","CENTER_NAME":"EARTH","REF_FRAME":"TEME"},{"SEMIMAJOR_AXIS":"6917.885","OBJECT_TYPE":"PAYLOAD","OBJECT_ID":"2022-041F","MEAN_ANOMALY":"311.9895","EPOCH":"2022-11-02T20:13:47.690976","ARG_OF_PERICENTER":"48.1244","TLE_LINE2":"2 52266  53.2168 198.6909 0001720  48.1244 311.9895 15.08838501 29751","LAUNCH_DATE":"2022-04-21","TIME_SYSTEM":"UTC","COUNTRY_CODE":"US","APOAPSIS":"540.940","CENTER_NAME":"EARTH","REF_FRAME":"TEME","INCLINATION":"53.2168","MEAN_MOTION_DDOT":"0.0000000000000","CLASSIFICATION_TYPE":"U","NORAD_CAT_ID":"52266","OBJECT_NAME":"STARLINK-3739","PERIAPSIS":"538.560","RCS_SIZE":"LARGE","MEAN_ELEMENT_THEORY":"SGP4","EPHEMERIS_TYPE":"0","RA_OF_ASC_NODE":"198.6909","MEAN_MOTION_DOT":"0.00002100","REV_AT_EPOCH":"2975","ELEMENT_SET_NO":"999","FILE":"3643025","GP_ID":"216791833","SITE":"AFETR","TLE_LINE1":"1 52266U 22041F   22306.84291309  .00002100  00000-0  14999-3 0  9997","BSTAR":"0.00014999000000","ECCENTRICITY":"0.00017200","DECAY_DATE":null,"MEAN_MOTION":"15.08838501","PERIOD":"95.438"}];
